[{"OBJECT_NAME":"LIZZIESAT-2 (LS-2)","OBJECT_ID":"2024-247G","EPOCH":"2026-03-09T11:47:37.199328","MEAN_MOTION":15.28222796,"ECCENTRICITY":0.00040927,"INCLINATION":44.9909,"RA_OF_ASC_NODE":117.0823,"ARG_OF_PERICENTER":327.5136,"MEAN_ANOMALY":32.5495,"EPHEMERIS_TYPE":0,"CLASSIFICATION_TYPE":"U","NORAD_CAT_ID":62383,"ELEMENT_SET_NO":999,"REV_AT_EPOCH":6771,"BSTAR":0.00034516624,"MEAN_MOTION_DOT":9.388e-5,"MEAN_MOTION_DDOT":0},{"OBJECT_NAME":"STARLINK-35514","OBJECT_ID":"2025-265V","EPOCH":"2026-03-09T21:51:41.463648","MEAN_MOTION":15.27594741,"ECCENTRICITY":0.00012591,"INCLINATION":43.0012,"RA_OF_ASC_NODE":276.9943,"ARG_OF_PERICENTER":286.7395,"MEAN_ANOMALY":73.3319,"EPHEMERIS_TYPE":0,"CLASSIFICATION_TYPE":"U","NORAD_CAT_ID":66535,"ELEMENT_SET_NO":999,"REV_AT_EPOCH":1714,"BSTAR":0.0012764367,"MEAN_MOTION_DOT":0.00035045,"MEAN_MOTION_DDOT":0}]
